[{"OBJECT_NAME":"AMOS-17","OBJECT_ID":"2019-050A","EPOCH":"2026-03-05T05:31:14.056320","MEAN_MOTION":1.00271626,"ECCENTRICITY":0.00014386,"INCLINATION":0.046,"RA_OF_ASC_NODE":291.0471,"ARG_OF_PERICENTER":53.5443,"MEAN_ANOMALY":278.1492,"EPHEMERIS_TYPE":0,"CLASSIFICATION_TYPE":"U","NORAD_CAT_ID":44479,"ELEMENT_SET_NO":999,"REV_AT_EPOCH":2414,"BSTAR":0,"MEAN_MOTION_DOT":1.0e-6,"MEAN_MOTION_DDOT":0}]
